<?xml version="1.0" encoding="UTF-8"?>
<gpx version="1.1" creator="NoTrackRun" xmlns="http://www.topografix.com/GPX/1/1">
  <trk>
    <name>Training 2026-03-25</name>
    <trkseg>
      <!-- Warm Up distance 1500m @ 2.78m/s -->
      <trkpt lat="48.856600" lon="2.352200"><ele>35</ele><time>2026-03-25T10:00:00Z</time></trkpt>
      <trkpt lat="48.856689" lon="2.352335"><ele>35</ele><time>2026-03-25T10:00:05Z</time></trkpt>
      <trkpt lat="48.856777" lon="2.352469"><ele>35</ele><time>2026-03-25T10:00:10Z</time></trkpt>
      <trkpt lat="48.856866" lon="2.352604"><ele>35</ele><time>2026-03-25T10:00:15Z</time></trkpt>
      <trkpt lat="48.856954" lon="2.352738"><ele>35</ele><time>2026-03-25T10:00:20Z</time></trkpt>
      <trkpt lat="48.857043" lon="2.352873"><ele>35</ele><time>2026-03-25T10:00:25Z</time></trkpt>
      <trkpt lat="48.857131" lon="2.353007"><ele>35</ele><time>2026-03-25T10:00:30Z</time></trkpt>
      <trkpt lat="48.857220" lon="2.353142"><ele>35</ele><time>2026-03-25T10:00:35Z</time></trkpt>
      <trkpt lat="48.857308" lon="2.353277"><ele>35</ele><time>2026-03-25T10:00:40Z</time></trkpt>
      <trkpt lat="48.857397" lon="2.353411"><ele>35</ele><time>2026-03-25T10:00:45Z</time></trkpt>
      <trkpt lat="48.857485" lon="2.353546"><ele>35</ele><time>2026-03-25T10:00:50Z</time></trkpt>
      <trkpt lat="48.857574" lon="2.353680"><ele>35</ele><time>2026-03-25T10:00:55Z</time></trkpt>
      <trkpt lat="48.857663" lon="2.353815"><ele>35</ele><time>2026-03-25T10:01:00Z</time></trkpt>
      <trkpt lat="48.857751" lon="2.353950"><ele>35</ele><time>2026-03-25T10:01:05Z</time></trkpt>
      <trkpt lat="48.857840" lon="2.354084"><ele>35</ele><time>2026-03-25T10:01:10Z</time></trkpt>
      <trkpt lat="48.857928" lon="2.354219"><ele>35</ele><time>2026-03-25T10:01:15Z</time></trkpt>
      <trkpt lat="48.858017" lon="2.354353"><ele>35</ele><time>2026-03-25T10:01:20Z</time></trkpt>
      <trkpt lat="48.858105" lon="2.354488"><ele>35</ele><time>2026-03-25T10:01:25Z</time></trkpt>
      <trkpt lat="48.858194" lon="2.354622"><ele>35</ele><time>2026-03-25T10:01:30Z</time></trkpt>
      <trkpt lat="48.858282" lon="2.354757"><ele>35</ele><time>2026-03-25T10:01:35Z</time></trkpt>
      <trkpt lat="48.858371" lon="2.354892"><ele>35</ele><time>2026-03-25T10:01:40Z</time></trkpt>
      <trkpt lat="48.858459" lon="2.355026"><ele>35</ele><time>2026-03-25T10:01:45Z</time></trkpt>
      <trkpt lat="48.858548" lon="2.355161"><ele>35</ele><time>2026-03-25T10:01:50Z</time></trkpt>
      <trkpt lat="48.858637" lon="2.355295"><ele>35</ele><time>2026-03-25T10:01:55Z</time></trkpt>
      <trkpt lat="48.858725" lon="2.355430"><ele>35</ele><time>2026-03-25T10:02:00Z</time></trkpt>
      <trkpt lat="48.858814" lon="2.355565"><ele>35</ele><time>2026-03-25T10:02:05Z</time></trkpt>
      <trkpt lat="48.858902" lon="2.355699"><ele>35</ele><time>2026-03-25T10:02:10Z</time></trkpt>
      <trkpt lat="48.858991" lon="2.355834"><ele>35</ele><time>2026-03-25T10:02:15Z</time></trkpt>
      <trkpt lat="48.859079" lon="2.355968"><ele>35</ele><time>2026-03-25T10:02:20Z</time></trkpt>
      <trkpt lat="48.859168" lon="2.356103"><ele>35</ele><time>2026-03-25T10:02:25Z</time></trkpt>
      <trkpt lat="48.859256" lon="2.356237"><ele>35</ele><time>2026-03-25T10:02:30Z</time></trkpt>
      <trkpt lat="48.859345" lon="2.356372"><ele>35</ele><time>2026-03-25T10:02:35Z</time></trkpt>
      <trkpt lat="48.859434" lon="2.356507"><ele>35</ele><time>2026-03-25T10:02:40Z</time></trkpt>
      <trkpt lat="48.859522" lon="2.356641"><ele>35</ele><time>2026-03-25T10:02:45Z</time></trkpt>
      <trkpt lat="48.859611" lon="2.356776"><ele>35</ele><time>2026-03-25T10:02:50Z</time></trkpt>
      <trkpt lat="48.859699" lon="2.356910"><ele>35</ele><time>2026-03-25T10:02:55Z</time></trkpt>
      <trkpt lat="48.859788" lon="2.357045"><ele>35</ele><time>2026-03-25T10:03:00Z</time></trkpt>
      <trkpt lat="48.859876" lon="2.357180"><ele>35</ele><time>2026-03-25T10:03:05Z</time></trkpt>
      <trkpt lat="48.859965" lon="2.357314"><ele>35</ele><time>2026-03-25T10:03:10Z</time></trkpt>
      <trkpt lat="48.860053" lon="2.357449"><ele>35</ele><time>2026-03-25T10:03:15Z</time></trkpt>
      <trkpt lat="48.860142" lon="2.357583"><ele>35</ele><time>2026-03-25T10:03:20Z</time></trkpt>
      <trkpt lat="48.860230" lon="2.357718"><ele>35</ele><time>2026-03-25T10:03:25Z</time></trkpt>
      <trkpt lat="48.860319" lon="2.357852"><ele>35</ele><time>2026-03-25T10:03:30Z</time></trkpt>
      <trkpt lat="48.860408" lon="2.357987"><ele>35</ele><time>2026-03-25T10:03:35Z</time></trkpt>
      <trkpt lat="48.860496" lon="2.358122"><ele>35</ele><time>2026-03-25T10:03:40Z</time></trkpt>
      <trkpt lat="48.860585" lon="2.358256"><ele>35</ele><time>2026-03-25T10:03:45Z</time></trkpt>
      <trkpt lat="48.860673" lon="2.358391"><ele>35</ele><time>2026-03-25T10:03:50Z</time></trkpt>
      <trkpt lat="48.860762" lon="2.358525"><ele>35</ele><time>2026-03-25T10:03:55Z</time></trkpt>
      <trkpt lat="48.860850" lon="2.358660"><ele>35</ele><time>2026-03-25T10:04:00Z</time></trkpt>
      <trkpt lat="48.860939" lon="2.358795"><ele>35</ele><time>2026-03-25T10:04:05Z</time></trkpt>
      <trkpt lat="48.861027" lon="2.358929"><ele>35</ele><time>2026-03-25T10:04:10Z</time></trkpt>
      <trkpt lat="48.861116" lon="2.359064"><ele>35</ele><time>2026-03-25T10:04:15Z</time></trkpt>
      <trkpt lat="48.861204" lon="2.359198"><ele>35</ele><time>2026-03-25T10:04:20Z</time></trkpt>
      <trkpt lat="48.861293" lon="2.359333"><ele>35</ele><time>2026-03-25T10:04:25Z</time></trkpt>
      <trkpt lat="48.861382" lon="2.359467"><ele>35</ele><time>2026-03-25T10:04:30Z</time></trkpt>
      <trkpt lat="48.861470" lon="2.359602"><ele>35</ele><time>2026-03-25T10:04:35Z</time></trkpt>
      <trkpt lat="48.861559" lon="2.359737"><ele>35</ele><time>2026-03-25T10:04:40Z</time></trkpt>
      <trkpt lat="48.861647" lon="2.359871"><ele>35</ele><time>2026-03-25T10:04:45Z</time></trkpt>
      <trkpt lat="48.861736" lon="2.360006"><ele>35</ele><time>2026-03-25T10:04:50Z</time></trkpt>
      <trkpt lat="48.861824" lon="2.360140"><ele>35</ele><time>2026-03-25T10:04:55Z</time></trkpt>
      <trkpt lat="48.861913" lon="2.360275"><ele>35</ele><time>2026-03-25T10:05:00Z</time></trkpt>
      <trkpt lat="48.862001" lon="2.360409"><ele>35</ele><time>2026-03-25T10:05:05Z</time></trkpt>
      <trkpt lat="48.862090" lon="2.360544"><ele>35</ele><time>2026-03-25T10:05:10Z</time></trkpt>
      <trkpt lat="48.862178" lon="2.360679"><ele>35</ele><time>2026-03-25T10:05:15Z</time></trkpt>
      <trkpt lat="48.862267" lon="2.360813"><ele>35</ele><time>2026-03-25T10:05:20Z</time></trkpt>
      <trkpt lat="48.862356" lon="2.360948"><ele>35</ele><time>2026-03-25T10:05:25Z</time></trkpt>
      <trkpt lat="48.862444" lon="2.361082"><ele>35</ele><time>2026-03-25T10:05:30Z</time></trkpt>
      <trkpt lat="48.862533" lon="2.361217"><ele>35</ele><time>2026-03-25T10:05:35Z</time></trkpt>
      <trkpt lat="48.862621" lon="2.361352"><ele>35</ele><time>2026-03-25T10:05:40Z</time></trkpt>
      <trkpt lat="48.862710" lon="2.361486"><ele>35</ele><time>2026-03-25T10:05:45Z</time></trkpt>
      <trkpt lat="48.862798" lon="2.361621"><ele>35</ele><time>2026-03-25T10:05:50Z</time></trkpt>
      <trkpt lat="48.862887" lon="2.361755"><ele>35</ele><time>2026-03-25T10:05:55Z</time></trkpt>
      <trkpt lat="48.862975" lon="2.361890"><ele>35</ele><time>2026-03-25T10:06:00Z</time></trkpt>
      <trkpt lat="48.863064" lon="2.362024"><ele>35</ele><time>2026-03-25T10:06:05Z</time></trkpt>
      <trkpt lat="48.863153" lon="2.362159"><ele>35</ele><time>2026-03-25T10:06:10Z</time></trkpt>
      <trkpt lat="48.863241" lon="2.362294"><ele>35</ele><time>2026-03-25T10:06:15Z</time></trkpt>
      <trkpt lat="48.863330" lon="2.362428"><ele>35</ele><time>2026-03-25T10:06:20Z</time></trkpt>
      <trkpt lat="48.863418" lon="2.362563"><ele>35</ele><time>2026-03-25T10:06:25Z</time></trkpt>
      <trkpt lat="48.863507" lon="2.362697"><ele>35</ele><time>2026-03-25T10:06:30Z</time></trkpt>
      <trkpt lat="48.863595" lon="2.362832"><ele>35</ele><time>2026-03-25T10:06:35Z</time></trkpt>
      <trkpt lat="48.863684" lon="2.362967"><ele>35</ele><time>2026-03-25T10:06:40Z</time></trkpt>
      <trkpt lat="48.863772" lon="2.363101"><ele>35</ele><time>2026-03-25T10:06:45Z</time></trkpt>
      <trkpt lat="48.863861" lon="2.363236"><ele>35</ele><time>2026-03-25T10:06:50Z</time></trkpt>
      <trkpt lat="48.863949" lon="2.363370"><ele>35</ele><time>2026-03-25T10:06:55Z</time></trkpt>
      <trkpt lat="48.864038" lon="2.363505"><ele>35</ele><time>2026-03-25T10:07:00Z</time></trkpt>
      <trkpt lat="48.864127" lon="2.363639"><ele>35</ele><time>2026-03-25T10:07:05Z</time></trkpt>
      <trkpt lat="48.864215" lon="2.363774"><ele>35</ele><time>2026-03-25T10:07:10Z</time></trkpt>
      <trkpt lat="48.864304" lon="2.363909"><ele>35</ele><time>2026-03-25T10:07:15Z</time></trkpt>
      <trkpt lat="48.864392" lon="2.364043"><ele>35</ele><time>2026-03-25T10:07:20Z</time></trkpt>
      <trkpt lat="48.864481" lon="2.364178"><ele>35</ele><time>2026-03-25T10:07:25Z</time></trkpt>
      <trkpt lat="48.864569" lon="2.364312"><ele>35</ele><time>2026-03-25T10:07:30Z</time></trkpt>
      <trkpt lat="48.864658" lon="2.364447"><ele>35</ele><time>2026-03-25T10:07:35Z</time></trkpt>
      <trkpt lat="48.864746" lon="2.364582"><ele>35</ele><time>2026-03-25T10:07:40Z</time></trkpt>
      <trkpt lat="48.864835" lon="2.364716"><ele>35</ele><time>2026-03-25T10:07:45Z</time></trkpt>
      <trkpt lat="48.864923" lon="2.364851"><ele>35</ele><time>2026-03-25T10:07:50Z</time></trkpt>
      <trkpt lat="48.865012" lon="2.364985"><ele>35</ele><time>2026-03-25T10:07:55Z</time></trkpt>
      <trkpt lat="48.865101" lon="2.365120"><ele>35</ele><time>2026-03-25T10:08:00Z</time></trkpt>
      <trkpt lat="48.865189" lon="2.365254"><ele>35</ele><time>2026-03-25T10:08:05Z</time></trkpt>
      <trkpt lat="48.865278" lon="2.365389"><ele>35</ele><time>2026-03-25T10:08:10Z</time></trkpt>
      <trkpt lat="48.865366" lon="2.365524"><ele>35</ele><time>2026-03-25T10:08:15Z</time></trkpt>
      <trkpt lat="48.865455" lon="2.365658"><ele>35</ele><time>2026-03-25T10:08:20Z</time></trkpt>
      <trkpt lat="48.865543" lon="2.365793"><ele>35</ele><time>2026-03-25T10:08:25Z</time></trkpt>
      <trkpt lat="48.865632" lon="2.365927"><ele>35</ele><time>2026-03-25T10:08:30Z</time></trkpt>
      <trkpt lat="48.865720" lon="2.366062"><ele>35</ele><time>2026-03-25T10:08:35Z</time></trkpt>
      <trkpt lat="48.865809" lon="2.366197"><ele>35</ele><time>2026-03-25T10:08:40Z</time></trkpt>
      <trkpt lat="48.865897" lon="2.366331"><ele>35</ele><time>2026-03-25T10:08:45Z</time></trkpt>
      <trkpt lat="48.865986" lon="2.366466"><ele>35</ele><time>2026-03-25T10:08:50Z</time></trkpt>
      <trkpt lat="48.866075" lon="2.366600"><ele>35</ele><time>2026-03-25T10:08:55Z</time></trkpt>
      <!-- Warm Up duration 150s @ 3.33m/s -->
      <trkpt lat="48.866163" lon="2.366735"><ele>35</ele><time>2026-03-25T10:09:00Z</time></trkpt>
      <trkpt lat="48.866269" lon="2.366896"><ele>35</ele><time>2026-03-25T10:09:05Z</time></trkpt>
      <trkpt lat="48.866375" lon="2.367057"><ele>35</ele><time>2026-03-25T10:09:10Z</time></trkpt>
      <trkpt lat="48.866481" lon="2.367219"><ele>35</ele><time>2026-03-25T10:09:15Z</time></trkpt>
      <trkpt lat="48.866587" lon="2.367380"><ele>35</ele><time>2026-03-25T10:09:20Z</time></trkpt>
      <trkpt lat="48.866693" lon="2.367541"><ele>35</ele><time>2026-03-25T10:09:25Z</time></trkpt>
      <trkpt lat="48.866800" lon="2.367702"><ele>35</ele><time>2026-03-25T10:09:30Z</time></trkpt>
      <trkpt lat="48.866906" lon="2.367864"><ele>35</ele><time>2026-03-25T10:09:35Z</time></trkpt>
      <trkpt lat="48.867012" lon="2.368025"><ele>35</ele><time>2026-03-25T10:09:40Z</time></trkpt>
      <trkpt lat="48.867118" lon="2.368186"><ele>35</ele><time>2026-03-25T10:09:45Z</time></trkpt>
      <trkpt lat="48.867224" lon="2.368347"><ele>35</ele><time>2026-03-25T10:09:50Z</time></trkpt>
      <trkpt lat="48.867330" lon="2.368508"><ele>35</ele><time>2026-03-25T10:09:55Z</time></trkpt>
      <trkpt lat="48.867436" lon="2.368670"><ele>35</ele><time>2026-03-25T10:10:00Z</time></trkpt>
      <trkpt lat="48.867542" lon="2.368831"><ele>35</ele><time>2026-03-25T10:10:05Z</time></trkpt>
      <trkpt lat="48.867648" lon="2.368992"><ele>35</ele><time>2026-03-25T10:10:10Z</time></trkpt>
      <trkpt lat="48.867754" lon="2.369153"><ele>35</ele><time>2026-03-25T10:10:15Z</time></trkpt>
      <trkpt lat="48.867860" lon="2.369315"><ele>35</ele><time>2026-03-25T10:10:20Z</time></trkpt>
      <trkpt lat="48.867966" lon="2.369476"><ele>35</ele><time>2026-03-25T10:10:25Z</time></trkpt>
      <trkpt lat="48.868072" lon="2.369637"><ele>35</ele><time>2026-03-25T10:10:30Z</time></trkpt>
      <trkpt lat="48.868178" lon="2.369798"><ele>35</ele><time>2026-03-25T10:10:35Z</time></trkpt>
      <trkpt lat="48.868284" lon="2.369960"><ele>35</ele><time>2026-03-25T10:10:40Z</time></trkpt>
      <trkpt lat="48.868391" lon="2.370121"><ele>35</ele><time>2026-03-25T10:10:45Z</time></trkpt>
      <trkpt lat="48.868497" lon="2.370282"><ele>35</ele><time>2026-03-25T10:10:50Z</time></trkpt>
      <trkpt lat="48.868603" lon="2.370443"><ele>35</ele><time>2026-03-25T10:10:55Z</time></trkpt>
      <trkpt lat="48.868709" lon="2.370605"><ele>35</ele><time>2026-03-25T10:11:00Z</time></trkpt>
      <trkpt lat="48.868815" lon="2.370766"><ele>35</ele><time>2026-03-25T10:11:05Z</time></trkpt>
      <trkpt lat="48.868921" lon="2.370927"><ele>35</ele><time>2026-03-25T10:11:10Z</time></trkpt>
      <trkpt lat="48.869027" lon="2.371088"><ele>35</ele><time>2026-03-25T10:11:15Z</time></trkpt>
      <trkpt lat="48.869133" lon="2.371250"><ele>35</ele><time>2026-03-25T10:11:20Z</time></trkpt>
      <trkpt lat="48.869239" lon="2.371411"><ele>35</ele><time>2026-03-25T10:11:25Z</time></trkpt>
      <trkpt lat="48.869345" lon="2.371572"><ele>35</ele><time>2026-03-25T10:11:30Z</time></trkpt>
      <!-- Cardio distance 400m @ 4.17m/s -->
      <trkpt lat="48.869451" lon="2.371733"><ele>35</ele><time>2026-03-25T10:11:35Z</time></trkpt>
      <trkpt lat="48.869584" lon="2.371935"><ele>35</ele><time>2026-03-25T10:11:40Z</time></trkpt>
      <trkpt lat="48.869717" lon="2.372137"><ele>35</ele><time>2026-03-25T10:11:45Z</time></trkpt>
      <trkpt lat="48.869850" lon="2.372339"><ele>35</ele><time>2026-03-25T10:11:50Z</time></trkpt>
      <trkpt lat="48.869982" lon="2.372541"><ele>35</ele><time>2026-03-25T10:11:55Z</time></trkpt>
      <trkpt lat="48.870115" lon="2.372743"><ele>35</ele><time>2026-03-25T10:12:00Z</time></trkpt>
      <trkpt lat="48.870248" lon="2.372945"><ele>35</ele><time>2026-03-25T10:12:05Z</time></trkpt>
      <trkpt lat="48.870381" lon="2.373147"><ele>35</ele><time>2026-03-25T10:12:10Z</time></trkpt>
      <trkpt lat="48.870514" lon="2.373349"><ele>35</ele><time>2026-03-25T10:12:15Z</time></trkpt>
      <trkpt lat="48.870647" lon="2.373551"><ele>35</ele><time>2026-03-25T10:12:20Z</time></trkpt>
      <trkpt lat="48.870779" lon="2.373752"><ele>35</ele><time>2026-03-25T10:12:25Z</time></trkpt>
      <trkpt lat="48.870912" lon="2.373954"><ele>35</ele><time>2026-03-25T10:12:30Z</time></trkpt>
      <trkpt lat="48.871045" lon="2.374156"><ele>35</ele><time>2026-03-25T10:12:35Z</time></trkpt>
      <trkpt lat="48.871178" lon="2.374358"><ele>35</ele><time>2026-03-25T10:12:40Z</time></trkpt>
      <trkpt lat="48.871311" lon="2.374560"><ele>35</ele><time>2026-03-25T10:12:45Z</time></trkpt>
      <trkpt lat="48.871444" lon="2.374762"><ele>35</ele><time>2026-03-25T10:12:50Z</time></trkpt>
      <trkpt lat="48.871576" lon="2.374964"><ele>35</ele><time>2026-03-25T10:12:55Z</time></trkpt>
      <trkpt lat="48.871709" lon="2.375166"><ele>35</ele><time>2026-03-25T10:13:00Z</time></trkpt>
      <trkpt lat="48.871842" lon="2.375368"><ele>35</ele><time>2026-03-25T10:13:05Z</time></trkpt>
      <trkpt lat="48.871975" lon="2.375570"><ele>35</ele><time>2026-03-25T10:13:10Z</time></trkpt>
      <!-- Cardio duration 72s @ 5.56m/s -->
      <trkpt lat="48.872108" lon="2.375772"><ele>35</ele><time>2026-03-25T10:13:15Z</time></trkpt>
      <trkpt lat="48.872285" lon="2.376041"><ele>35</ele><time>2026-03-25T10:13:20Z</time></trkpt>
      <trkpt lat="48.872462" lon="2.376310"><ele>35</ele><time>2026-03-25T10:13:25Z</time></trkpt>
      <trkpt lat="48.872639" lon="2.376579"><ele>35</ele><time>2026-03-25T10:13:30Z</time></trkpt>
      <trkpt lat="48.872816" lon="2.376849"><ele>35</ele><time>2026-03-25T10:13:35Z</time></trkpt>
      <trkpt lat="48.872993" lon="2.377118"><ele>35</ele><time>2026-03-25T10:13:40Z</time></trkpt>
      <trkpt lat="48.873170" lon="2.377387"><ele>35</ele><time>2026-03-25T10:13:45Z</time></trkpt>
      <trkpt lat="48.873347" lon="2.377656"><ele>35</ele><time>2026-03-25T10:13:50Z</time></trkpt>
      <trkpt lat="48.873524" lon="2.377926"><ele>35</ele><time>2026-03-25T10:13:55Z</time></trkpt>
      <trkpt lat="48.873701" lon="2.378195"><ele>35</ele><time>2026-03-25T10:14:00Z</time></trkpt>
      <trkpt lat="48.873879" lon="2.378464"><ele>35</ele><time>2026-03-25T10:14:05Z</time></trkpt>
      <trkpt lat="48.874056" lon="2.378733"><ele>35</ele><time>2026-03-25T10:14:10Z</time></trkpt>
      <trkpt lat="48.874233" lon="2.379003"><ele>35</ele><time>2026-03-25T10:14:15Z</time></trkpt>
      <trkpt lat="48.874410" lon="2.379272"><ele>35</ele><time>2026-03-25T10:14:20Z</time></trkpt>
      <trkpt lat="48.874587" lon="2.379541"><ele>35</ele><time>2026-03-25T10:14:25Z</time></trkpt>
      <!-- Cardio distance 400m @ 4.17m/s -->
      <trkpt lat="48.874764" lon="2.379810"><ele>35</ele><time>2026-03-25T10:14:30Z</time></trkpt>
      <trkpt lat="48.874897" lon="2.380012"><ele>35</ele><time>2026-03-25T10:14:35Z</time></trkpt>
      <trkpt lat="48.875030" lon="2.380214"><ele>35</ele><time>2026-03-25T10:14:40Z</time></trkpt>
      <trkpt lat="48.875163" lon="2.380416"><ele>35</ele><time>2026-03-25T10:14:45Z</time></trkpt>
      <trkpt lat="48.875295" lon="2.380618"><ele>35</ele><time>2026-03-25T10:14:50Z</time></trkpt>
      <trkpt lat="48.875428" lon="2.380820"><ele>35</ele><time>2026-03-25T10:14:55Z</time></trkpt>
      <trkpt lat="48.875561" lon="2.381022"><ele>35</ele><time>2026-03-25T10:15:00Z</time></trkpt>
      <trkpt lat="48.875694" lon="2.381224"><ele>35</ele><time>2026-03-25T10:15:05Z</time></trkpt>
      <trkpt lat="48.875827" lon="2.381426"><ele>35</ele><time>2026-03-25T10:15:10Z</time></trkpt>
      <trkpt lat="48.875959" lon="2.381628"><ele>35</ele><time>2026-03-25T10:15:15Z</time></trkpt>
      <trkpt lat="48.876092" lon="2.381830"><ele>35</ele><time>2026-03-25T10:15:20Z</time></trkpt>
      <trkpt lat="48.876225" lon="2.382032"><ele>35</ele><time>2026-03-25T10:15:25Z</time></trkpt>
      <trkpt lat="48.876358" lon="2.382234"><ele>35</ele><time>2026-03-25T10:15:30Z</time></trkpt>
      <trkpt lat="48.876491" lon="2.382436"><ele>35</ele><time>2026-03-25T10:15:35Z</time></trkpt>
      <trkpt lat="48.876624" lon="2.382638"><ele>35</ele><time>2026-03-25T10:15:40Z</time></trkpt>
      <trkpt lat="48.876756" lon="2.382840"><ele>35</ele><time>2026-03-25T10:15:45Z</time></trkpt>
      <trkpt lat="48.876889" lon="2.383042"><ele>35</ele><time>2026-03-25T10:15:50Z</time></trkpt>
      <trkpt lat="48.877022" lon="2.383244"><ele>35</ele><time>2026-03-25T10:15:55Z</time></trkpt>
      <trkpt lat="48.877155" lon="2.383445"><ele>35</ele><time>2026-03-25T10:16:00Z</time></trkpt>
      <trkpt lat="48.877288" lon="2.383647"><ele>35</ele><time>2026-03-25T10:16:05Z</time></trkpt>
      <!-- Cardio duration 72s @ 5.56m/s -->
      <trkpt lat="48.877420" lon="2.383849"><ele>35</ele><time>2026-03-25T10:16:10Z</time></trkpt>
      <trkpt lat="48.877598" lon="2.384119"><ele>35</ele><time>2026-03-25T10:16:15Z</time></trkpt>
      <trkpt lat="48.877775" lon="2.384388"><ele>35</ele><time>2026-03-25T10:16:20Z</time></trkpt>
      <trkpt lat="48.877952" lon="2.384657"><ele>35</ele><time>2026-03-25T10:16:25Z</time></trkpt>
      <trkpt lat="48.878129" lon="2.384926"><ele>35</ele><time>2026-03-25T10:16:30Z</time></trkpt>
      <trkpt lat="48.878306" lon="2.385196"><ele>35</ele><time>2026-03-25T10:16:35Z</time></trkpt>
      <trkpt lat="48.878483" lon="2.385465"><ele>35</ele><time>2026-03-25T10:16:40Z</time></trkpt>
      <trkpt lat="48.878660" lon="2.385734"><ele>35</ele><time>2026-03-25T10:16:45Z</time></trkpt>
      <trkpt lat="48.878837" lon="2.386004"><ele>35</ele><time>2026-03-25T10:16:50Z</time></trkpt>
      <trkpt lat="48.879014" lon="2.386273"><ele>35</ele><time>2026-03-25T10:16:55Z</time></trkpt>
      <trkpt lat="48.879191" lon="2.386542"><ele>35</ele><time>2026-03-25T10:17:00Z</time></trkpt>
      <trkpt lat="48.879369" lon="2.386811"><ele>35</ele><time>2026-03-25T10:17:05Z</time></trkpt>
      <trkpt lat="48.879546" lon="2.387081"><ele>35</ele><time>2026-03-25T10:17:10Z</time></trkpt>
      <trkpt lat="48.879723" lon="2.387350"><ele>35</ele><time>2026-03-25T10:17:15Z</time></trkpt>
      <trkpt lat="48.879900" lon="2.387619"><ele>35</ele><time>2026-03-25T10:17:20Z</time></trkpt>
      <!-- Calm Down duration 480s @ 2.78m/s -->
      <trkpt lat="48.880077" lon="2.387889"><ele>35</ele><time>2026-03-25T10:17:25Z</time></trkpt>
      <trkpt lat="48.880165" lon="2.388023"><ele>35</ele><time>2026-03-25T10:17:30Z</time></trkpt>
      <trkpt lat="48.880254" lon="2.388158"><ele>35</ele><time>2026-03-25T10:17:35Z</time></trkpt>
      <trkpt lat="48.880343" lon="2.388292"><ele>35</ele><time>2026-03-25T10:17:40Z</time></trkpt>
      <trkpt lat="48.880431" lon="2.388427"><ele>35</ele><time>2026-03-25T10:17:45Z</time></trkpt>
      <trkpt lat="48.880520" lon="2.388562"><ele>35</ele><time>2026-03-25T10:17:50Z</time></trkpt>
      <trkpt lat="48.880608" lon="2.388696"><ele>35</ele><time>2026-03-25T10:17:55Z</time></trkpt>
      <trkpt lat="48.880697" lon="2.388831"><ele>35</ele><time>2026-03-25T10:18:00Z</time></trkpt>
      <trkpt lat="48.880785" lon="2.388966"><ele>35</ele><time>2026-03-25T10:18:05Z</time></trkpt>
      <trkpt lat="48.880874" lon="2.389100"><ele>35</ele><time>2026-03-25T10:18:10Z</time></trkpt>
      <trkpt lat="48.880962" lon="2.389235"><ele>35</ele><time>2026-03-25T10:18:15Z</time></trkpt>
      <trkpt lat="48.881051" lon="2.389370"><ele>35</ele><time>2026-03-25T10:18:20Z</time></trkpt>
      <trkpt lat="48.881139" lon="2.389504"><ele>35</ele><time>2026-03-25T10:18:25Z</time></trkpt>
      <trkpt lat="48.881228" lon="2.389639"><ele>35</ele><time>2026-03-25T10:18:30Z</time></trkpt>
      <trkpt lat="48.881317" lon="2.389774"><ele>35</ele><time>2026-03-25T10:18:35Z</time></trkpt>
      <trkpt lat="48.881405" lon="2.389908"><ele>35</ele><time>2026-03-25T10:18:40Z</time></trkpt>
      <trkpt lat="48.881494" lon="2.390043"><ele>35</ele><time>2026-03-25T10:18:45Z</time></trkpt>
      <trkpt lat="48.881582" lon="2.390177"><ele>35</ele><time>2026-03-25T10:18:50Z</time></trkpt>
      <trkpt lat="48.881671" lon="2.390312"><ele>35</ele><time>2026-03-25T10:18:55Z</time></trkpt>
      <trkpt lat="48.881759" lon="2.390447"><ele>35</ele><time>2026-03-25T10:19:00Z</time></trkpt>
      <trkpt lat="48.881848" lon="2.390581"><ele>35</ele><time>2026-03-25T10:19:05Z</time></trkpt>
      <trkpt lat="48.881936" lon="2.390716"><ele>35</ele><time>2026-03-25T10:19:10Z</time></trkpt>
      <trkpt lat="48.882025" lon="2.390851"><ele>35</ele><time>2026-03-25T10:19:15Z</time></trkpt>
      <trkpt lat="48.882113" lon="2.390985"><ele>35</ele><time>2026-03-25T10:19:20Z</time></trkpt>
      <trkpt lat="48.882202" lon="2.391120"><ele>35</ele><time>2026-03-25T10:19:25Z</time></trkpt>
      <trkpt lat="48.882291" lon="2.391255"><ele>35</ele><time>2026-03-25T10:19:30Z</time></trkpt>
      <trkpt lat="48.882379" lon="2.391389"><ele>35</ele><time>2026-03-25T10:19:35Z</time></trkpt>
      <trkpt lat="48.882468" lon="2.391524"><ele>35</ele><time>2026-03-25T10:19:40Z</time></trkpt>
      <trkpt lat="48.882556" lon="2.391659"><ele>35</ele><time>2026-03-25T10:19:45Z</time></trkpt>
      <trkpt lat="48.882645" lon="2.391793"><ele>35</ele><time>2026-03-25T10:19:50Z</time></trkpt>
      <trkpt lat="48.882733" lon="2.391928"><ele>35</ele><time>2026-03-25T10:19:55Z</time></trkpt>
      <trkpt lat="48.882822" lon="2.392063"><ele>35</ele><time>2026-03-25T10:20:00Z</time></trkpt>
      <trkpt lat="48.882910" lon="2.392197"><ele>35</ele><time>2026-03-25T10:20:05Z</time></trkpt>
      <trkpt lat="48.882999" lon="2.392332"><ele>35</ele><time>2026-03-25T10:20:10Z</time></trkpt>
      <trkpt lat="48.883088" lon="2.392466"><ele>35</ele><time>2026-03-25T10:20:15Z</time></trkpt>
      <trkpt lat="48.883176" lon="2.392601"><ele>35</ele><time>2026-03-25T10:20:20Z</time></trkpt>
      <trkpt lat="48.883265" lon="2.392736"><ele>35</ele><time>2026-03-25T10:20:25Z</time></trkpt>
      <trkpt lat="48.883353" lon="2.392870"><ele>35</ele><time>2026-03-25T10:20:30Z</time></trkpt>
      <trkpt lat="48.883442" lon="2.393005"><ele>35</ele><time>2026-03-25T10:20:35Z</time></trkpt>
      <trkpt lat="48.883530" lon="2.393140"><ele>35</ele><time>2026-03-25T10:20:40Z</time></trkpt>
      <trkpt lat="48.883619" lon="2.393274"><ele>35</ele><time>2026-03-25T10:20:45Z</time></trkpt>
      <trkpt lat="48.883707" lon="2.393409"><ele>35</ele><time>2026-03-25T10:20:50Z</time></trkpt>
      <trkpt lat="48.883796" lon="2.393544"><ele>35</ele><time>2026-03-25T10:20:55Z</time></trkpt>
      <trkpt lat="48.883884" lon="2.393678"><ele>35</ele><time>2026-03-25T10:21:00Z</time></trkpt>
      <trkpt lat="48.883973" lon="2.393813"><ele>35</ele><time>2026-03-25T10:21:05Z</time></trkpt>
      <trkpt lat="48.884062" lon="2.393948"><ele>35</ele><time>2026-03-25T10:21:10Z</time></trkpt>
      <trkpt lat="48.884150" lon="2.394082"><ele>35</ele><time>2026-03-25T10:21:15Z</time></trkpt>
      <trkpt lat="48.884239" lon="2.394217"><ele>35</ele><time>2026-03-25T10:21:20Z</time></trkpt>
      <trkpt lat="48.884327" lon="2.394351"><ele>35</ele><time>2026-03-25T10:21:25Z</time></trkpt>
      <trkpt lat="48.884416" lon="2.394486"><ele>35</ele><time>2026-03-25T10:21:30Z</time></trkpt>
      <trkpt lat="48.884504" lon="2.394621"><ele>35</ele><time>2026-03-25T10:21:35Z</time></trkpt>
      <trkpt lat="48.884593" lon="2.394755"><ele>35</ele><time>2026-03-25T10:21:40Z</time></trkpt>
      <trkpt lat="48.884681" lon="2.394890"><ele>35</ele><time>2026-03-25T10:21:45Z</time></trkpt>
      <trkpt lat="48.884770" lon="2.395025"><ele>35</ele><time>2026-03-25T10:21:50Z</time></trkpt>
      <trkpt lat="48.884858" lon="2.395159"><ele>35</ele><time>2026-03-25T10:21:55Z</time></trkpt>
      <trkpt lat="48.884947" lon="2.395294"><ele>35</ele><time>2026-03-25T10:22:00Z</time></trkpt>
      <trkpt lat="48.885036" lon="2.395429"><ele>35</ele><time>2026-03-25T10:22:05Z</time></trkpt>
      <trkpt lat="48.885124" lon="2.395563"><ele>35</ele><time>2026-03-25T10:22:10Z</time></trkpt>
      <trkpt lat="48.885213" lon="2.395698"><ele>35</ele><time>2026-03-25T10:22:15Z</time></trkpt>
      <trkpt lat="48.885301" lon="2.395833"><ele>35</ele><time>2026-03-25T10:22:20Z</time></trkpt>
      <trkpt lat="48.885390" lon="2.395967"><ele>35</ele><time>2026-03-25T10:22:25Z</time></trkpt>
      <trkpt lat="48.885478" lon="2.396102"><ele>35</ele><time>2026-03-25T10:22:30Z</time></trkpt>
      <trkpt lat="48.885567" lon="2.396236"><ele>35</ele><time>2026-03-25T10:22:35Z</time></trkpt>
      <trkpt lat="48.885655" lon="2.396371"><ele>35</ele><time>2026-03-25T10:22:40Z</time></trkpt>
      <trkpt lat="48.885744" lon="2.396506"><ele>35</ele><time>2026-03-25T10:22:45Z</time></trkpt>
      <trkpt lat="48.885832" lon="2.396640"><ele>35</ele><time>2026-03-25T10:22:50Z</time></trkpt>
      <trkpt lat="48.885921" lon="2.396775"><ele>35</ele><time>2026-03-25T10:22:55Z</time></trkpt>
      <trkpt lat="48.886010" lon="2.396910"><ele>35</ele><time>2026-03-25T10:23:00Z</time></trkpt>
      <trkpt lat="48.886098" lon="2.397044"><ele>35</ele><time>2026-03-25T10:23:05Z</time></trkpt>
      <trkpt lat="48.886187" lon="2.397179"><ele>35</ele><time>2026-03-25T10:23:10Z</time></trkpt>
      <trkpt lat="48.886275" lon="2.397314"><ele>35</ele><time>2026-03-25T10:23:15Z</time></trkpt>
      <trkpt lat="48.886364" lon="2.397448"><ele>35</ele><time>2026-03-25T10:23:20Z</time></trkpt>
      <trkpt lat="48.886452" lon="2.397583"><ele>35</ele><time>2026-03-25T10:23:25Z</time></trkpt>
      <trkpt lat="48.886541" lon="2.397718"><ele>35</ele><time>2026-03-25T10:23:30Z</time></trkpt>
      <trkpt lat="48.886629" lon="2.397852"><ele>35</ele><time>2026-03-25T10:23:35Z</time></trkpt>
      <trkpt lat="48.886718" lon="2.397987"><ele>35</ele><time>2026-03-25T10:23:40Z</time></trkpt>
      <trkpt lat="48.886807" lon="2.398122"><ele>35</ele><time>2026-03-25T10:23:45Z</time></trkpt>
      <trkpt lat="48.886895" lon="2.398256"><ele>35</ele><time>2026-03-25T10:23:50Z</time></trkpt>
      <trkpt lat="48.886984" lon="2.398391"><ele>35</ele><time>2026-03-25T10:23:55Z</time></trkpt>
      <trkpt lat="48.887072" lon="2.398525"><ele>35</ele><time>2026-03-25T10:24:00Z</time></trkpt>
      <trkpt lat="48.887161" lon="2.398660"><ele>35</ele><time>2026-03-25T10:24:05Z</time></trkpt>
      <trkpt lat="48.887249" lon="2.398795"><ele>35</ele><time>2026-03-25T10:24:10Z</time></trkpt>
      <trkpt lat="48.887338" lon="2.398929"><ele>35</ele><time>2026-03-25T10:24:15Z</time></trkpt>
      <trkpt lat="48.887426" lon="2.399064"><ele>35</ele><time>2026-03-25T10:24:20Z</time></trkpt>
      <trkpt lat="48.887515" lon="2.399199"><ele>35</ele><time>2026-03-25T10:24:25Z</time></trkpt>
      <trkpt lat="48.887603" lon="2.399333"><ele>35</ele><time>2026-03-25T10:24:30Z</time></trkpt>
      <trkpt lat="48.887692" lon="2.399468"><ele>35</ele><time>2026-03-25T10:24:35Z</time></trkpt>
      <trkpt lat="48.887781" lon="2.399603"><ele>35</ele><time>2026-03-25T10:24:40Z</time></trkpt>
      <trkpt lat="48.887869" lon="2.399737"><ele>35</ele><time>2026-03-25T10:24:45Z</time></trkpt>
      <trkpt lat="48.887958" lon="2.399872"><ele>35</ele><time>2026-03-25T10:24:50Z</time></trkpt>
      <trkpt lat="48.888046" lon="2.400007"><ele>35</ele><time>2026-03-25T10:24:55Z</time></trkpt>
      <trkpt lat="48.888135" lon="2.400141"><ele>35</ele><time>2026-03-25T10:25:00Z</time></trkpt>
      <trkpt lat="48.888223" lon="2.400276"><ele>35</ele><time>2026-03-25T10:25:05Z</time></trkpt>
      <trkpt lat="48.888312" lon="2.400410"><ele>35</ele><time>2026-03-25T10:25:10Z</time></trkpt>
      <trkpt lat="48.888400" lon="2.400545"><ele>35</ele><time>2026-03-25T10:25:15Z</time></trkpt>
      <trkpt lat="48.888489" lon="2.400680"><ele>35</ele><time>2026-03-25T10:25:20Z</time></trkpt>
      <trkpt lat="48.888577" lon="2.400814"><ele>35</ele><time>2026-03-25T10:25:25Z</time></trkpt>
    </trkseg>
  </trk>
</gpx>