<?xml version="1.0" encoding="UTF-8"?>
<gpx version="1.1" creator="NoTrackRun" xmlns="http://www.topografix.com/GPX/1/1">
  <trk>
    <name>Training 2026-03-25</name>
    <trkseg>
      <!-- Warm Up distance 1500m -->
      <trkpt lat="48.8566000" lon="2.3522000"><ele>35</ele><time>2026-03-25T10:00:00Z</time></trkpt>
      <trkpt lat="48.8566885" lon="2.3523346"><ele>35</ele><time>2026-03-25T10:00:05Z</time></trkpt>
      <trkpt lat="48.8567804" lon="2.3524742"><ele>35</ele><time>2026-03-25T10:00:10Z</time></trkpt>
      <trkpt lat="48.8568781" lon="2.3526227"><ele>35</ele><time>2026-03-25T10:00:15Z</time></trkpt>
      <trkpt lat="48.8569815" lon="2.3527798"><ele>35</ele><time>2026-03-25T10:00:20Z</time></trkpt>
      <trkpt lat="48.8570851" lon="2.3529372"><ele>35</ele><time>2026-03-25T10:00:25Z</time></trkpt>
      <trkpt lat="48.8571813" lon="2.3530834"><ele>35</ele><time>2026-03-25T10:00:30Z</time></trkpt>
      <trkpt lat="48.8572670" lon="2.3532138"><ele>35</ele><time>2026-03-25T10:00:35Z</time></trkpt>
      <trkpt lat="48.8573459" lon="2.3533336"><ele>35</ele><time>2026-03-25T10:00:40Z</time></trkpt>
      <trkpt lat="48.8574235" lon="2.3534516"><ele>35</ele><time>2026-03-25T10:00:45Z</time></trkpt>
      <trkpt lat="48.8575022" lon="2.3535713"><ele>35</ele><time>2026-03-25T10:00:50Z</time></trkpt>
      <trkpt lat="48.8575812" lon="2.3536913"><ele>35</ele><time>2026-03-25T10:00:55Z</time></trkpt>
      <trkpt lat="48.8576610" lon="2.3538127"><ele>35</ele><time>2026-03-25T10:01:00Z</time></trkpt>
      <trkpt lat="48.8577462" lon="2.3539421"><ele>35</ele><time>2026-03-25T10:01:05Z</time></trkpt>
      <trkpt lat="48.8578409" lon="2.3540861"><ele>35</ele><time>2026-03-25T10:01:10Z</time></trkpt>
      <trkpt lat="48.8579441" lon="2.3542429"><ele>35</ele><time>2026-03-25T10:01:15Z</time></trkpt>
      <trkpt lat="48.8580486" lon="2.3544018"><ele>35</ele><time>2026-03-25T10:01:20Z</time></trkpt>
      <trkpt lat="48.8581475" lon="2.3545521"><ele>35</ele><time>2026-03-25T10:01:25Z</time></trkpt>
      <trkpt lat="48.8582392" lon="2.3546914"><ele>35</ele><time>2026-03-25T10:01:30Z</time></trkpt>
      <trkpt lat="48.8583263" lon="2.3548238"><ele>35</ele><time>2026-03-25T10:01:35Z</time></trkpt>
      <trkpt lat="48.8584107" lon="2.3549521"><ele>35</ele><time>2026-03-25T10:01:40Z</time></trkpt>
      <trkpt lat="48.8584910" lon="2.3550742"><ele>35</ele><time>2026-03-25T10:01:45Z</time></trkpt>
      <trkpt lat="48.8585661" lon="2.3551883"><ele>35</ele><time>2026-03-25T10:01:50Z</time></trkpt>
      <trkpt lat="48.8586398" lon="2.3553003"><ele>35</ele><time>2026-03-25T10:01:55Z</time></trkpt>
      <trkpt lat="48.8587194" lon="2.3554213"><ele>35</ele><time>2026-03-25T10:02:00Z</time></trkpt>
      <trkpt lat="48.8588097" lon="2.3555585"><ele>35</ele><time>2026-03-25T10:02:05Z</time></trkpt>
      <trkpt lat="48.8589084" lon="2.3557086"><ele>35</ele><time>2026-03-25T10:02:10Z</time></trkpt>
      <trkpt lat="48.8590093" lon="2.3558619"><ele>35</ele><time>2026-03-25T10:02:15Z</time></trkpt>
      <trkpt lat="48.8591082" lon="2.3560123"><ele>35</ele><time>2026-03-25T10:02:20Z</time></trkpt>
      <trkpt lat="48.8592053" lon="2.3561599"><ele>35</ele><time>2026-03-25T10:02:25Z</time></trkpt>
      <trkpt lat="48.8593013" lon="2.3563057"><ele>35</ele><time>2026-03-25T10:02:30Z</time></trkpt>
      <trkpt lat="48.8593933" lon="2.3564456"><ele>35</ele><time>2026-03-25T10:02:35Z</time></trkpt>
      <trkpt lat="48.8594770" lon="2.3565728"><ele>35</ele><time>2026-03-25T10:02:40Z</time></trkpt>
      <trkpt lat="48.8595518" lon="2.3566866"><ele>35</ele><time>2026-03-25T10:02:45Z</time></trkpt>
      <trkpt lat="48.8596237" lon="2.3567958"><ele>35</ele><time>2026-03-25T10:02:50Z</time></trkpt>
      <trkpt lat="48.8597005" lon="2.3569125"><ele>35</ele><time>2026-03-25T10:02:55Z</time></trkpt>
      <trkpt lat="48.8597856" lon="2.3570419"><ele>35</ele><time>2026-03-25T10:03:00Z</time></trkpt>
      <trkpt lat="48.8598767" lon="2.3571804"><ele>35</ele><time>2026-03-25T10:03:05Z</time></trkpt>
      <trkpt lat="48.8599706" lon="2.3573231"><ele>35</ele><time>2026-03-25T10:03:10Z</time></trkpt>
      <trkpt lat="48.8600671" lon="2.3574698"><ele>35</ele><time>2026-03-25T10:03:15Z</time></trkpt>
      <trkpt lat="48.8601677" lon="2.3576227"><ele>35</ele><time>2026-03-25T10:03:20Z</time></trkpt>
      <trkpt lat="48.8602704" lon="2.3577787"><ele>35</ele><time>2026-03-25T10:03:25Z</time></trkpt>
      <trkpt lat="48.8603687" lon="2.3579282"><ele>35</ele><time>2026-03-25T10:03:30Z</time></trkpt>
      <trkpt lat="48.8604569" lon="2.3580623"><ele>35</ele><time>2026-03-25T10:03:35Z</time></trkpt>
      <trkpt lat="48.8605354" lon="2.3581816"><ele>35</ele><time>2026-03-25T10:03:40Z</time></trkpt>
      <trkpt lat="48.8606103" lon="2.3582955"><ele>35</ele><time>2026-03-25T10:03:45Z</time></trkpt>
      <trkpt lat="48.8606875" lon="2.3584127"><ele>35</ele><time>2026-03-25T10:03:50Z</time></trkpt>
      <trkpt lat="48.8607680" lon="2.3585351"><ele>35</ele><time>2026-03-25T10:03:55Z</time></trkpt>
      <trkpt lat="48.8608506" lon="2.3586606"><ele>35</ele><time>2026-03-25T10:04:00Z</time></trkpt>
      <trkpt lat="48.8609361" lon="2.3587907"><ele>35</ele><time>2026-03-25T10:04:05Z</time></trkpt>
      <trkpt lat="48.8610285" lon="2.3589310"><ele>35</ele><time>2026-03-25T10:04:10Z</time></trkpt>
      <trkpt lat="48.8611294" lon="2.3590845"><ele>35</ele><time>2026-03-25T10:04:15Z</time></trkpt>
      <trkpt lat="48.8612348" lon="2.3592447"><ele>35</ele><time>2026-03-25T10:04:20Z</time></trkpt>
      <trkpt lat="48.8613365" lon="2.3593992"><ele>35</ele><time>2026-03-25T10:04:25Z</time></trkpt>
      <trkpt lat="48.8614293" lon="2.3595404"><ele>35</ele><time>2026-03-25T10:04:30Z</time></trkpt>
      <trkpt lat="48.8615145" lon="2.3596699"><ele>35</ele><time>2026-03-25T10:04:35Z</time></trkpt>
      <trkpt lat="48.8615964" lon="2.3597943"><ele>35</ele><time>2026-03-25T10:04:40Z</time></trkpt>
      <trkpt lat="48.8616767" lon="2.3599164"><ele>35</ele><time>2026-03-25T10:04:45Z</time></trkpt>
      <trkpt lat="48.8617544" lon="2.3600345"><ele>35</ele><time>2026-03-25T10:04:50Z</time></trkpt>
      <trkpt lat="48.8618300" lon="2.3601493"><ele>35</ele><time>2026-03-25T10:04:55Z</time></trkpt>
      <trkpt lat="48.8619083" lon="2.3602685"><ele>35</ele><time>2026-03-25T10:05:00Z</time></trkpt>
      <trkpt lat="48.8619958" lon="2.3604014"><ele>35</ele><time>2026-03-25T10:05:05Z</time></trkpt>
      <trkpt lat="48.8620937" lon="2.3605503"><ele>35</ele><time>2026-03-25T10:05:10Z</time></trkpt>
      <trkpt lat="48.8621969" lon="2.3607071"><ele>35</ele><time>2026-03-25T10:05:15Z</time></trkpt>
      <trkpt lat="48.8622982" lon="2.3608611"><ele>35</ele><time>2026-03-25T10:05:20Z</time></trkpt>
      <trkpt lat="48.8623948" lon="2.3610079"><ele>35</ele><time>2026-03-25T10:05:25Z</time></trkpt>
      <trkpt lat="48.8624880" lon="2.3611496"><ele>35</ele><time>2026-03-25T10:05:30Z</time></trkpt>
      <trkpt lat="48.8625785" lon="2.3612872"><ele>35</ele><time>2026-03-25T10:05:35Z</time></trkpt>
      <trkpt lat="48.8626639" lon="2.3614169"><ele>35</ele><time>2026-03-25T10:05:40Z</time></trkpt>
      <trkpt lat="48.8627414" lon="2.3615348"><ele>35</ele><time>2026-03-25T10:05:45Z</time></trkpt>
      <trkpt lat="48.8628136" lon="2.3616445"><ele>35</ele><time>2026-03-25T10:05:50Z</time></trkpt>
      <trkpt lat="48.8628879" lon="2.3617575"><ele>35</ele><time>2026-03-25T10:05:55Z</time></trkpt>
      <trkpt lat="48.8629709" lon="2.3618837"><ele>35</ele><time>2026-03-25T10:06:00Z</time></trkpt>
      <trkpt lat="48.8630630" lon="2.3620236"><ele>35</ele><time>2026-03-25T10:06:05Z</time></trkpt>
      <trkpt lat="48.8631597" lon="2.3621706"><ele>35</ele><time>2026-03-25T10:06:10Z</time></trkpt>
      <trkpt lat="48.8632573" lon="2.3623189"><ele>35</ele><time>2026-03-25T10:06:15Z</time></trkpt>
      <trkpt lat="48.8633558" lon="2.3624687"><ele>35</ele><time>2026-03-25T10:06:20Z</time></trkpt>
      <trkpt lat="48.8634560" lon="2.3626210"><ele>35</ele><time>2026-03-25T10:06:25Z</time></trkpt>
      <trkpt lat="48.8635545" lon="2.3627707"><ele>35</ele><time>2026-03-25T10:06:30Z</time></trkpt>
      <trkpt lat="48.8636454" lon="2.3629089"><ele>35</ele><time>2026-03-25T10:06:35Z</time></trkpt>
      <trkpt lat="48.8637256" lon="2.3630309"><ele>35</ele><time>2026-03-25T10:06:40Z</time></trkpt>
      <trkpt lat="48.8637991" lon="2.3631426"><ele>35</ele><time>2026-03-25T10:06:45Z</time></trkpt>
      <trkpt lat="48.8638735" lon="2.3632556"><ele>35</ele><time>2026-03-25T10:06:50Z</time></trkpt>
      <trkpt lat="48.8639534" lon="2.3633771"><ele>35</ele><time>2026-03-25T10:06:55Z</time></trkpt>
      <trkpt lat="48.8640383" lon="2.3635062"><ele>35</ele><time>2026-03-25T10:07:00Z</time></trkpt>
      <trkpt lat="48.8641262" lon="2.3636397"><ele>35</ele><time>2026-03-25T10:07:05Z</time></trkpt>
      <trkpt lat="48.8642179" lon="2.3637791"><ele>35</ele><time>2026-03-25T10:07:10Z</time></trkpt>
      <trkpt lat="48.8643161" lon="2.3639284"><ele>35</ele><time>2026-03-25T10:07:15Z</time></trkpt>
      <trkpt lat="48.8644200" lon="2.3640864"><ele>35</ele><time>2026-03-25T10:07:20Z</time></trkpt>
      <trkpt lat="48.8645235" lon="2.3642437"><ele>35</ele><time>2026-03-25T10:07:25Z</time></trkpt>
      <trkpt lat="48.8646190" lon="2.3643889"><ele>35</ele><time>2026-03-25T10:07:30Z</time></trkpt>
      <trkpt lat="48.8647044" lon="2.3645187"><ele>35</ele><time>2026-03-25T10:07:35Z</time></trkpt>
      <trkpt lat="48.8647837" lon="2.3646392"><ele>35</ele><time>2026-03-25T10:07:40Z</time></trkpt>
      <trkpt lat="48.8648620" lon="2.3647582"><ele>35</ele><time>2026-03-25T10:07:45Z</time></trkpt>
      <trkpt lat="48.8649408" lon="2.3648780"><ele>35</ele><time>2026-03-25T10:07:50Z</time></trkpt>
      <trkpt lat="48.8650191" lon="2.3649972"><ele>35</ele><time>2026-03-25T10:07:55Z</time></trkpt>
      <trkpt lat="48.8650985" lon="2.3651177"><ele>35</ele><time>2026-03-25T10:08:00Z</time></trkpt>
      <trkpt lat="48.8651838" lon="2.3652475"><ele>35</ele><time>2026-03-25T10:08:05Z</time></trkpt>
      <trkpt lat="48.8652793" lon="2.3653926"><ele>35</ele><time>2026-03-25T10:08:10Z</time></trkpt>
      <trkpt lat="48.8653827" lon="2.3655498"><ele>35</ele><time>2026-03-25T10:08:15Z</time></trkpt>
      <trkpt lat="48.8654867" lon="2.3657080"><ele>35</ele><time>2026-03-25T10:08:20Z</time></trkpt>
      <trkpt lat="48.8655850" lon="2.3658573"><ele>35</ele><time>2026-03-25T10:08:25Z</time></trkpt>
      <trkpt lat="48.8656767" lon="2.3659967"><ele>35</ele><time>2026-03-25T10:08:30Z</time></trkpt>
      <trkpt lat="48.8657645" lon="2.3661302"><ele>35</ele><time>2026-03-25T10:08:35Z</time></trkpt>
      <trkpt lat="48.8658493" lon="2.3662592"><ele>35</ele><time>2026-03-25T10:08:40Z</time></trkpt>
      <trkpt lat="48.8659293" lon="2.3663807"><ele>35</ele><time>2026-03-25T10:08:45Z</time></trkpt>
      <trkpt lat="48.8660037" lon="2.3664938"><ele>35</ele><time>2026-03-25T10:08:50Z</time></trkpt>
      <trkpt lat="48.8660772" lon="2.3666056"><ele>35</ele><time>2026-03-25T10:08:55Z</time></trkpt>
      <!-- Warm Up duration 150s -->
      <trkpt lat="48.8661574" lon="2.3667275"><ele>35</ele><time>2026-03-25T10:09:00Z</time></trkpt>
      <trkpt lat="48.8662635" lon="2.3668888"><ele>35</ele><time>2026-03-25T10:09:05Z</time></trkpt>
      <trkpt lat="48.8663736" lon="2.3670561"><ele>35</ele><time>2026-03-25T10:09:10Z</time></trkpt>
      <trkpt lat="48.8664905" lon="2.3672339"><ele>35</ele><time>2026-03-25T10:09:15Z</time></trkpt>
      <trkpt lat="48.8666144" lon="2.3674222"><ele>35</ele><time>2026-03-25T10:09:20Z</time></trkpt>
      <trkpt lat="48.8667384" lon="2.3676108"><ele>35</ele><time>2026-03-25T10:09:25Z</time></trkpt>
      <trkpt lat="48.8668537" lon="2.3677860"><ele>35</ele><time>2026-03-25T10:09:30Z</time></trkpt>
      <trkpt lat="48.8669564" lon="2.3679421"><ele>35</ele><time>2026-03-25T10:09:35Z</time></trkpt>
      <trkpt lat="48.8670509" lon="2.3680857"><ele>35</ele><time>2026-03-25T10:09:40Z</time></trkpt>
      <trkpt lat="48.8671439" lon="2.3682271"><ele>35</ele><time>2026-03-25T10:09:45Z</time></trkpt>
      <trkpt lat="48.8672382" lon="2.3683705"><ele>35</ele><time>2026-03-25T10:09:50Z</time></trkpt>
      <trkpt lat="48.8673328" lon="2.3685143"><ele>35</ele><time>2026-03-25T10:09:55Z</time></trkpt>
      <trkpt lat="48.8674284" lon="2.3686596"><ele>35</ele><time>2026-03-25T10:10:00Z</time></trkpt>
      <trkpt lat="48.8675304" lon="2.3688146"><ele>35</ele><time>2026-03-25T10:10:05Z</time></trkpt>
      <trkpt lat="48.8676439" lon="2.3689872"><ele>35</ele><time>2026-03-25T10:10:10Z</time></trkpt>
      <trkpt lat="48.8677675" lon="2.3691751"><ele>35</ele><time>2026-03-25T10:10:15Z</time></trkpt>
      <trkpt lat="48.8678927" lon="2.3693654"><ele>35</ele><time>2026-03-25T10:10:20Z</time></trkpt>
      <trkpt lat="48.8680111" lon="2.3695455"><ele>35</ele><time>2026-03-25T10:10:25Z</time></trkpt>
      <trkpt lat="48.8681209" lon="2.3697124"><ele>35</ele><time>2026-03-25T10:10:30Z</time></trkpt>
      <trkpt lat="48.8682253" lon="2.3698711"><ele>35</ele><time>2026-03-25T10:10:35Z</time></trkpt>
      <trkpt lat="48.8683264" lon="2.3700248"><ele>35</ele><time>2026-03-25T10:10:40Z</time></trkpt>
      <trkpt lat="48.8684226" lon="2.3701710"><ele>35</ele><time>2026-03-25T10:10:45Z</time></trkpt>
      <trkpt lat="48.8685125" lon="2.3703077"><ele>35</ele><time>2026-03-25T10:10:50Z</time></trkpt>
      <trkpt lat="48.8686008" lon="2.3704419"><ele>35</ele><time>2026-03-25T10:10:55Z</time></trkpt>
      <trkpt lat="48.8686962" lon="2.3705869"><ele>35</ele><time>2026-03-25T10:11:00Z</time></trkpt>
      <trkpt lat="48.8688043" lon="2.3707513"><ele>35</ele><time>2026-03-25T10:11:05Z</time></trkpt>
      <trkpt lat="48.8689225" lon="2.3709310"><ele>35</ele><time>2026-03-25T10:11:10Z</time></trkpt>
      <trkpt lat="48.8690434" lon="2.3711148"><ele>35</ele><time>2026-03-25T10:11:15Z</time></trkpt>
      <trkpt lat="48.8691619" lon="2.3712949"><ele>35</ele><time>2026-03-25T10:11:20Z</time></trkpt>
      <trkpt lat="48.8692782" lon="2.3714717"><ele>35</ele><time>2026-03-25T10:11:25Z</time></trkpt>
      <trkpt lat="48.8693931" lon="2.3716465"><ele>35</ele><time>2026-03-25T10:11:30Z</time></trkpt>
      <!-- Cardio distance 400m -->
      <trkpt lat="48.8695034" lon="2.3718141"><ele>35</ele><time>2026-03-25T10:11:35Z</time></trkpt>
      <trkpt lat="48.8696362" lon="2.3720160"><ele>35</ele><time>2026-03-25T10:11:40Z</time></trkpt>
      <trkpt lat="48.8697740" lon="2.3722256"><ele>35</ele><time>2026-03-25T10:11:45Z</time></trkpt>
      <trkpt lat="48.8699205" lon="2.3724483"><ele>35</ele><time>2026-03-25T10:11:50Z</time></trkpt>
      <trkpt lat="48.8700756" lon="2.3726840"><ele>35</ele><time>2026-03-25T10:11:55Z</time></trkpt>
      <trkpt lat="48.8702310" lon="2.3729202"><ele>35</ele><time>2026-03-25T10:12:00Z</time></trkpt>
      <trkpt lat="48.8703752" lon="2.3731396"><ele>35</ele><time>2026-03-25T10:12:05Z</time></trkpt>
      <trkpt lat="48.8705039" lon="2.3733351"><ele>35</ele><time>2026-03-25T10:12:10Z</time></trkpt>
      <trkpt lat="48.8706222" lon="2.3735150"><ele>35</ele><time>2026-03-25T10:12:15Z</time></trkpt>
      <trkpt lat="48.8707386" lon="2.3736920"><ele>35</ele><time>2026-03-25T10:12:20Z</time></trkpt>
      <trkpt lat="48.8708567" lon="2.3738716"><ele>35</ele><time>2026-03-25T10:12:25Z</time></trkpt>
      <trkpt lat="48.8709752" lon="2.3740517"><ele>35</ele><time>2026-03-25T10:12:30Z</time></trkpt>
      <trkpt lat="48.8710949" lon="2.3742338"><ele>35</ele><time>2026-03-25T10:12:35Z</time></trkpt>
      <trkpt lat="48.8712226" lon="2.3744279"><ele>35</ele><time>2026-03-25T10:12:40Z</time></trkpt>
      <trkpt lat="48.8713648" lon="2.3746440"><ele>35</ele><time>2026-03-25T10:12:45Z</time></trkpt>
      <trkpt lat="48.8715195" lon="2.3748793"><ele>35</ele><time>2026-03-25T10:12:50Z</time></trkpt>
      <trkpt lat="48.8716763" lon="2.3751176"><ele>35</ele><time>2026-03-25T10:12:55Z</time></trkpt>
      <trkpt lat="48.8718246" lon="2.3753431"><ele>35</ele><time>2026-03-25T10:13:00Z</time></trkpt>
      <trkpt lat="48.8719621" lon="2.3755521"><ele>35</ele><time>2026-03-25T10:13:05Z</time></trkpt>
      <trkpt lat="48.8720928" lon="2.3757509"><ele>35</ele><time>2026-03-25T10:13:10Z</time></trkpt>
      <!-- Cardio duration 72s -->
      <trkpt lat="48.8722195" lon="2.3759434"><ele>35</ele><time>2026-03-25T10:13:15Z</time></trkpt>
      <trkpt lat="48.8723966" lon="2.3762127"><ele>35</ele><time>2026-03-25T10:13:20Z</time></trkpt>
      <trkpt lat="48.8725803" lon="2.3764921"><ele>35</ele><time>2026-03-25T10:13:25Z</time></trkpt>
      <trkpt lat="48.8727756" lon="2.3767890"><ele>35</ele><time>2026-03-25T10:13:30Z</time></trkpt>
      <trkpt lat="48.8729824" lon="2.3771034"><ele>35</ele><time>2026-03-25T10:13:35Z</time></trkpt>
      <trkpt lat="48.8731896" lon="2.3774183"><ele>35</ele><time>2026-03-25T10:13:40Z</time></trkpt>
      <trkpt lat="48.8733820" lon="2.3777108"><ele>35</ele><time>2026-03-25T10:13:45Z</time></trkpt>
      <trkpt lat="48.8735535" lon="2.3779716"><ele>35</ele><time>2026-03-25T10:13:50Z</time></trkpt>
      <trkpt lat="48.8737112" lon="2.3782114"><ele>35</ele><time>2026-03-25T10:13:55Z</time></trkpt>
      <trkpt lat="48.8738665" lon="2.3784475"><ele>35</ele><time>2026-03-25T10:14:00Z</time></trkpt>
      <trkpt lat="48.8740239" lon="2.3786869"><ele>35</ele><time>2026-03-25T10:14:05Z</time></trkpt>
      <trkpt lat="48.8741819" lon="2.3789270"><ele>35</ele><time>2026-03-25T10:14:10Z</time></trkpt>
      <trkpt lat="48.8743416" lon="2.3791698"><ele>35</ele><time>2026-03-25T10:14:15Z</time></trkpt>
      <trkpt lat="48.8745118" lon="2.3794286"><ele>35</ele><time>2026-03-25T10:14:20Z</time></trkpt>
      <trkpt lat="48.8747013" lon="2.3797168"><ele>35</ele><time>2026-03-25T10:14:25Z</time></trkpt>
      <!-- Cardio distance 400m -->
      <trkpt lat="48.8749077" lon="2.3800306"><ele>35</ele><time>2026-03-25T10:14:30Z</time></trkpt>
      <trkpt lat="48.8750405" lon="2.3802325"><ele>35</ele><time>2026-03-25T10:14:35Z</time></trkpt>
      <trkpt lat="48.8751783" lon="2.3804421"><ele>35</ele><time>2026-03-25T10:14:40Z</time></trkpt>
      <trkpt lat="48.8753248" lon="2.3806648"><ele>35</ele><time>2026-03-25T10:14:45Z</time></trkpt>
      <trkpt lat="48.8754799" lon="2.3809006"><ele>35</ele><time>2026-03-25T10:14:50Z</time></trkpt>
      <trkpt lat="48.8756353" lon="2.3811368"><ele>35</ele><time>2026-03-25T10:14:55Z</time></trkpt>
      <trkpt lat="48.8757795" lon="2.3813562"><ele>35</ele><time>2026-03-25T10:15:00Z</time></trkpt>
      <trkpt lat="48.8759082" lon="2.3815518"><ele>35</ele><time>2026-03-25T10:15:05Z</time></trkpt>
      <trkpt lat="48.8760265" lon="2.3817316"><ele>35</ele><time>2026-03-25T10:15:10Z</time></trkpt>
      <trkpt lat="48.8761429" lon="2.3819087"><ele>35</ele><time>2026-03-25T10:15:15Z</time></trkpt>
      <trkpt lat="48.8762610" lon="2.3820883"><ele>35</ele><time>2026-03-25T10:15:20Z</time></trkpt>
      <trkpt lat="48.8763795" lon="2.3822684"><ele>35</ele><time>2026-03-25T10:15:25Z</time></trkpt>
      <trkpt lat="48.8764992" lon="2.3824505"><ele>35</ele><time>2026-03-25T10:15:30Z</time></trkpt>
      <trkpt lat="48.8766269" lon="2.3826446"><ele>35</ele><time>2026-03-25T10:15:35Z</time></trkpt>
      <trkpt lat="48.8767691" lon="2.3828607"><ele>35</ele><time>2026-03-25T10:15:40Z</time></trkpt>
      <trkpt lat="48.8769238" lon="2.3830961"><ele>35</ele><time>2026-03-25T10:15:45Z</time></trkpt>
      <trkpt lat="48.8770806" lon="2.3833344"><ele>35</ele><time>2026-03-25T10:15:50Z</time></trkpt>
      <trkpt lat="48.8772289" lon="2.3835600"><ele>35</ele><time>2026-03-25T10:15:55Z</time></trkpt>
      <trkpt lat="48.8773664" lon="2.3837690"><ele>35</ele><time>2026-03-25T10:16:00Z</time></trkpt>
      <trkpt lat="48.8774971" lon="2.3839678"><ele>35</ele><time>2026-03-25T10:16:05Z</time></trkpt>
      <!-- Cardio duration 72s -->
      <trkpt lat="48.8776238" lon="2.3841603"><ele>35</ele><time>2026-03-25T10:16:10Z</time></trkpt>
      <trkpt lat="48.8778009" lon="2.3844296"><ele>35</ele><time>2026-03-25T10:16:15Z</time></trkpt>
      <trkpt lat="48.8779846" lon="2.3847090"><ele>35</ele><time>2026-03-25T10:16:20Z</time></trkpt>
      <trkpt lat="48.8781799" lon="2.3850060"><ele>35</ele><time>2026-03-25T10:16:25Z</time></trkpt>
      <trkpt lat="48.8783867" lon="2.3853204"><ele>35</ele><time>2026-03-25T10:16:30Z</time></trkpt>
      <trkpt lat="48.8785939" lon="2.3856354"><ele>35</ele><time>2026-03-25T10:16:35Z</time></trkpt>
      <trkpt lat="48.8787863" lon="2.3859279"><ele>35</ele><time>2026-03-25T10:16:40Z</time></trkpt>
      <trkpt lat="48.8789578" lon="2.3861887"><ele>35</ele><time>2026-03-25T10:16:45Z</time></trkpt>
      <trkpt lat="48.8791155" lon="2.3864286"><ele>35</ele><time>2026-03-25T10:16:50Z</time></trkpt>
      <trkpt lat="48.8792708" lon="2.3866647"><ele>35</ele><time>2026-03-25T10:16:55Z</time></trkpt>
      <trkpt lat="48.8794282" lon="2.3869041"><ele>35</ele><time>2026-03-25T10:17:00Z</time></trkpt>
      <trkpt lat="48.8795862" lon="2.3871443"><ele>35</ele><time>2026-03-25T10:17:05Z</time></trkpt>
      <trkpt lat="48.8797459" lon="2.3873871"><ele>35</ele><time>2026-03-25T10:17:10Z</time></trkpt>
      <trkpt lat="48.8799161" lon="2.3876459"><ele>35</ele><time>2026-03-25T10:17:15Z</time></trkpt>
      <trkpt lat="48.8801056" lon="2.3879341"><ele>35</ele><time>2026-03-25T10:17:20Z</time></trkpt>
      <!-- Calm Down duration 480s -->
      <trkpt lat="48.8803120" lon="2.3882479"><ele>35</ele><time>2026-03-25T10:17:25Z</time></trkpt>
      <trkpt lat="48.8804005" lon="2.3883825"><ele>35</ele><time>2026-03-25T10:17:30Z</time></trkpt>
      <trkpt lat="48.8804924" lon="2.3885223"><ele>35</ele><time>2026-03-25T10:17:35Z</time></trkpt>
      <trkpt lat="48.8805901" lon="2.3886708"><ele>35</ele><time>2026-03-25T10:17:40Z</time></trkpt>
      <trkpt lat="48.8806935" lon="2.3888280"><ele>35</ele><time>2026-03-25T10:17:45Z</time></trkpt>
      <trkpt lat="48.8807970" lon="2.3889855"><ele>35</ele><time>2026-03-25T10:17:50Z</time></trkpt>
      <trkpt lat="48.8808932" lon="2.3891318"><ele>35</ele><time>2026-03-25T10:17:55Z</time></trkpt>
      <trkpt lat="48.8809790" lon="2.3892621"><ele>35</ele><time>2026-03-25T10:18:00Z</time></trkpt>
      <trkpt lat="48.8810578" lon="2.3893821"><ele>35</ele><time>2026-03-25T10:18:05Z</time></trkpt>
      <trkpt lat="48.8811355" lon="2.3895001"><ele>35</ele><time>2026-03-25T10:18:10Z</time></trkpt>
      <trkpt lat="48.8812142" lon="2.3896199"><ele>35</ele><time>2026-03-25T10:18:15Z</time></trkpt>
      <trkpt lat="48.8812932" lon="2.3897399"><ele>35</ele><time>2026-03-25T10:18:20Z</time></trkpt>
      <trkpt lat="48.8813730" lon="2.3898614"><ele>35</ele><time>2026-03-25T10:18:25Z</time></trkpt>
      <trkpt lat="48.8814581" lon="2.3899908"><ele>35</ele><time>2026-03-25T10:18:30Z</time></trkpt>
      <trkpt lat="48.8815529" lon="2.3901349"><ele>35</ele><time>2026-03-25T10:18:35Z</time></trkpt>
      <trkpt lat="48.8816561" lon="2.3902918"><ele>35</ele><time>2026-03-25T10:18:40Z</time></trkpt>
      <trkpt lat="48.8817606" lon="2.3904507"><ele>35</ele><time>2026-03-25T10:18:45Z</time></trkpt>
      <trkpt lat="48.8818595" lon="2.3906011"><ele>35</ele><time>2026-03-25T10:18:50Z</time></trkpt>
      <trkpt lat="48.8819511" lon="2.3907404"><ele>35</ele><time>2026-03-25T10:18:55Z</time></trkpt>
      <trkpt lat="48.8820383" lon="2.3908730"><ele>35</ele><time>2026-03-25T10:19:00Z</time></trkpt>
      <trkpt lat="48.8821227" lon="2.3910013"><ele>35</ele><time>2026-03-25T10:19:05Z</time></trkpt>
      <trkpt lat="48.8822030" lon="2.3911234"><ele>35</ele><time>2026-03-25T10:19:10Z</time></trkpt>
      <trkpt lat="48.8822781" lon="2.3912376"><ele>35</ele><time>2026-03-25T10:19:15Z</time></trkpt>
      <trkpt lat="48.8823518" lon="2.3913497"><ele>35</ele><time>2026-03-25T10:19:20Z</time></trkpt>
      <trkpt lat="48.8824314" lon="2.3914708"><ele>35</ele><time>2026-03-25T10:19:25Z</time></trkpt>
      <trkpt lat="48.8825217" lon="2.3916080"><ele>35</ele><time>2026-03-25T10:19:30Z</time></trkpt>
      <trkpt lat="48.8826204" lon="2.3917581"><ele>35</ele><time>2026-03-25T10:19:35Z</time></trkpt>
      <trkpt lat="48.8827213" lon="2.3919115"><ele>35</ele><time>2026-03-25T10:19:40Z</time></trkpt>
      <trkpt lat="48.8828202" lon="2.3920620"><ele>35</ele><time>2026-03-25T10:19:45Z</time></trkpt>
      <trkpt lat="48.8829173" lon="2.3922096"><ele>35</ele><time>2026-03-25T10:19:50Z</time></trkpt>
      <trkpt lat="48.8830132" lon="2.3923555"><ele>35</ele><time>2026-03-25T10:19:55Z</time></trkpt>
      <trkpt lat="48.8831053" lon="2.3924955"><ele>35</ele><time>2026-03-25T10:20:00Z</time></trkpt>
      <trkpt lat="48.8831890" lon="2.3926228"><ele>35</ele><time>2026-03-25T10:20:05Z</time></trkpt>
      <trkpt lat="48.8832638" lon="2.3927366"><ele>35</ele><time>2026-03-25T10:20:10Z</time></trkpt>
      <trkpt lat="48.8833357" lon="2.3928459"><ele>35</ele><time>2026-03-25T10:20:15Z</time></trkpt>
      <trkpt lat="48.8834125" lon="2.3929627"><ele>35</ele><time>2026-03-25T10:20:20Z</time></trkpt>
      <trkpt lat="48.8834976" lon="2.3930921"><ele>35</ele><time>2026-03-25T10:20:25Z</time></trkpt>
      <trkpt lat="48.8835887" lon="2.3932307"><ele>35</ele><time>2026-03-25T10:20:30Z</time></trkpt>
      <trkpt lat="48.8836826" lon="2.3933734"><ele>35</ele><time>2026-03-25T10:20:35Z</time></trkpt>
      <trkpt lat="48.8837791" lon="2.3935202"><ele>35</ele><time>2026-03-25T10:20:40Z</time></trkpt>
      <trkpt lat="48.8838797" lon="2.3936731"><ele>35</ele><time>2026-03-25T10:20:45Z</time></trkpt>
      <trkpt lat="48.8839824" lon="2.3938293"><ele>35</ele><time>2026-03-25T10:20:50Z</time></trkpt>
      <trkpt lat="48.8840807" lon="2.3939788"><ele>35</ele><time>2026-03-25T10:20:55Z</time></trkpt>
      <trkpt lat="48.8841689" lon="2.3941130"><ele>35</ele><time>2026-03-25T10:21:00Z</time></trkpt>
      <trkpt lat="48.8842474" lon="2.3942324"><ele>35</ele><time>2026-03-25T10:21:05Z</time></trkpt>
      <trkpt lat="48.8843223" lon="2.3943463"><ele>35</ele><time>2026-03-25T10:21:10Z</time></trkpt>
      <trkpt lat="48.8843994" lon="2.3944636"><ele>35</ele><time>2026-03-25T10:21:15Z</time></trkpt>
      <trkpt lat="48.8844800" lon="2.3945860"><ele>35</ele><time>2026-03-25T10:21:20Z</time></trkpt>
      <trkpt lat="48.8845626" lon="2.3947116"><ele>35</ele><time>2026-03-25T10:21:25Z</time></trkpt>
      <trkpt lat="48.8846481" lon="2.3948417"><ele>35</ele><time>2026-03-25T10:21:30Z</time></trkpt>
      <trkpt lat="48.8847404" lon="2.3949821"><ele>35</ele><time>2026-03-25T10:21:35Z</time></trkpt>
      <trkpt lat="48.8848414" lon="2.3951357"><ele>35</ele><time>2026-03-25T10:21:40Z</time></trkpt>
      <trkpt lat="48.8849468" lon="2.3952959"><ele>35</ele><time>2026-03-25T10:21:45Z</time></trkpt>
      <trkpt lat="48.8850485" lon="2.3954505"><ele>35</ele><time>2026-03-25T10:21:50Z</time></trkpt>
      <trkpt lat="48.8851413" lon="2.3955917"><ele>35</ele><time>2026-03-25T10:21:55Z</time></trkpt>
      <trkpt lat="48.8852265" lon="2.3957213"><ele>35</ele><time>2026-03-25T10:22:00Z</time></trkpt>
      <trkpt lat="48.8853084" lon="2.3958458"><ele>35</ele><time>2026-03-25T10:22:05Z</time></trkpt>
      <trkpt lat="48.8853887" lon="2.3959679"><ele>35</ele><time>2026-03-25T10:22:10Z</time></trkpt>
      <trkpt lat="48.8854664" lon="2.3960861"><ele>35</ele><time>2026-03-25T10:22:15Z</time></trkpt>
      <trkpt lat="48.8855419" lon="2.3962010"><ele>35</ele><time>2026-03-25T10:22:20Z</time></trkpt>
      <trkpt lat="48.8856203" lon="2.3963202"><ele>35</ele><time>2026-03-25T10:22:25Z</time></trkpt>
      <trkpt lat="48.8857078" lon="2.3964532"><ele>35</ele><time>2026-03-25T10:22:30Z</time></trkpt>
      <trkpt lat="48.8858057" lon="2.3966022"><ele>35</ele><time>2026-03-25T10:22:35Z</time></trkpt>
      <trkpt lat="48.8859089" lon="2.3967590"><ele>35</ele><time>2026-03-25T10:22:40Z</time></trkpt>
      <trkpt lat="48.8860102" lon="2.3969131"><ele>35</ele><time>2026-03-25T10:22:45Z</time></trkpt>
      <trkpt lat="48.8861068" lon="2.3970600"><ele>35</ele><time>2026-03-25T10:22:50Z</time></trkpt>
      <trkpt lat="48.8862000" lon="2.3972017"><ele>35</ele><time>2026-03-25T10:22:55Z</time></trkpt>
      <trkpt lat="48.8862905" lon="2.3973394"><ele>35</ele><time>2026-03-25T10:23:00Z</time></trkpt>
      <trkpt lat="48.8863759" lon="2.3974692"><ele>35</ele><time>2026-03-25T10:23:05Z</time></trkpt>
      <trkpt lat="48.8864534" lon="2.3975871"><ele>35</ele><time>2026-03-25T10:23:10Z</time></trkpt>
      <trkpt lat="48.8865256" lon="2.3976969"><ele>35</ele><time>2026-03-25T10:23:15Z</time></trkpt>
      <trkpt lat="48.8865999" lon="2.3978099"><ele>35</ele><time>2026-03-25T10:23:20Z</time></trkpt>
      <trkpt lat="48.8866829" lon="2.3979361"><ele>35</ele><time>2026-03-25T10:23:25Z</time></trkpt>
      <trkpt lat="48.8867750" lon="2.3980762"><ele>35</ele><time>2026-03-25T10:23:30Z</time></trkpt>
      <trkpt lat="48.8868716" lon="2.3982232"><ele>35</ele><time>2026-03-25T10:23:35Z</time></trkpt>
      <trkpt lat="48.8869692" lon="2.3983716"><ele>35</ele><time>2026-03-25T10:23:40Z</time></trkpt>
      <trkpt lat="48.8870678" lon="2.3985215"><ele>35</ele><time>2026-03-25T10:23:45Z</time></trkpt>
      <trkpt lat="48.8871679" lon="2.3986738"><ele>35</ele><time>2026-03-25T10:23:50Z</time></trkpt>
      <trkpt lat="48.8872665" lon="2.3988236"><ele>35</ele><time>2026-03-25T10:23:55Z</time></trkpt>
      <trkpt lat="48.8873573" lon="2.3989618"><ele>35</ele><time>2026-03-25T10:24:00Z</time></trkpt>
      <trkpt lat="48.8874376" lon="2.3990839"><ele>35</ele><time>2026-03-25T10:24:05Z</time></trkpt>
      <trkpt lat="48.8875111" lon="2.3991957"><ele>35</ele><time>2026-03-25T10:24:10Z</time></trkpt>
      <trkpt lat="48.8875855" lon="2.3993088"><ele>35</ele><time>2026-03-25T10:24:15Z</time></trkpt>
      <trkpt lat="48.8876654" lon="2.3994303"><ele>35</ele><time>2026-03-25T10:24:20Z</time></trkpt>
      <trkpt lat="48.8877503" lon="2.3995594"><ele>35</ele><time>2026-03-25T10:24:25Z</time></trkpt>
      <trkpt lat="48.8878381" lon="2.3996930"><ele>35</ele><time>2026-03-25T10:24:30Z</time></trkpt>
      <trkpt lat="48.8879298" lon="2.3998325"><ele>35</ele><time>2026-03-25T10:24:35Z</time></trkpt>
      <trkpt lat="48.8880280" lon="2.3999819"><ele>35</ele><time>2026-03-25T10:24:40Z</time></trkpt>
      <trkpt lat="48.8881320" lon="2.4001400"><ele>35</ele><time>2026-03-25T10:24:45Z</time></trkpt>
      <trkpt lat="48.8882355" lon="2.4002973"><ele>35</ele><time>2026-03-25T10:24:50Z</time></trkpt>
      <trkpt lat="48.8883310" lon="2.4004426"><ele>35</ele><time>2026-03-25T10:24:55Z</time></trkpt>
      <trkpt lat="48.8884164" lon="2.4005724"><ele>35</ele><time>2026-03-25T10:25:00Z</time></trkpt>
      <trkpt lat="48.8884956" lon="2.4006930"><ele>35</ele><time>2026-03-25T10:25:05Z</time></trkpt>
      <trkpt lat="48.8885739" lon="2.4008121"><ele>35</ele><time>2026-03-25T10:25:10Z</time></trkpt>
      <trkpt lat="48.8886528" lon="2.4009319"><ele>35</ele><time>2026-03-25T10:25:15Z</time></trkpt>
      <trkpt lat="48.8887311" lon="2.4010511"><ele>35</ele><time>2026-03-25T10:25:20Z</time></trkpt>
      <trkpt lat="48.8888104" lon="2.4011718"><ele>35</ele><time>2026-03-25T10:25:25Z</time></trkpt>
    </trkseg>
  </trk>
</gpx>